NORAD_CAT_ID,OBJECT_NAME,OBJECT_TYPE,EPOCH,MEAN_MOTION,ECCENTRICITY,INCLINATION,RA_OF_ASC_NODE,ARG_OF_PERICENTER,MEAN_ANOMALY,BSTAR,MEAN_MOTION_DOT,MEAN_MOTION_DDOT,TLE_LINE0,TLE_LINE1,TLE_LINE2,SEMIMAJOR_AXIS,PERIOD,APOGEE,PERIGEE,DECAYED
53733.0,STARLINK-4574,PAYLOAD,2024-06-11 05:03:19,15.08853474,0.0001218,53.2159,231.6167,89.7796,270.3335,0.00073352,0.0001141,0.0,0 STARLINK-4574,1 53733U 22107AK  24163.21064671  .00011410  00000-0  73352-3 0  9996,2 53733  53.2159 231.6167 0001218  89.7796 270.3335 15.08853474 97860,6917.839,95.437,540.547,538.862,0.0
53733.0,STARLINK-4574,PAYLOAD,2024-06-11 11:24:52,15.08845508,0.0001249,53.2165,230.4274,94.7446,265.3689,0.00025075,3.706e-05,0.0,0 STARLINK-4574,1 53733U 22107AK  24163.47560592  .00003706  00000-0  25075-3 0  9995,2 53733  53.2165 230.4274 0001249  94.7446 265.3689 15.08845508 98535,6917.864,95.437,540.593,538.865,0.0
53733.0,STARLINK-4574,PAYLOAD,2024-06-11 20:57:11,15.08842432,0.0001168,53.216,228.6439,96.0136,264.099,0.00010162,1.33e-05,0.0,0 STARLINK-4574,1 53733U 22107AK  24163.87304628  .00001330  00000-0  10162-3 0  9997,2 53733  53.2160 228.6439 0001168  96.0136 264.0990 15.08842432 97963,6917.873,95.437,540.546,538.93,0.0
53733.0,STARLINK-4574,PAYLOAD,2024-06-12 11:15:39,15.0883684,0.0001272,53.2174,225.9715,104.7886,255.3248,-4.167e-05,-9.51e-06,0.0,0 STARLINK-4574,1 53733U 22107AK  24164.46921013 -.00000951  00000-0 -41670-4 0  9995,2 53733  53.2174 225.9715 0001272 104.7886 255.3248 15.08836840 98056,6917.89,95.438,540.635,538.875,0.0
53733.0,STARLINK-4574,PAYLOAD,2024-06-13 11:06:27,15.08838083,0.0001303,53.2183,221.5114,109.152,250.9613,8.859e-05,1.122e-05,0.0,0 STARLINK-4574,1 53733U 22107AK  24165.46281316  .00001122  00000-0  88590-4 0  9992,2 53733  53.2183 221.5114 0001303 109.1520 250.9613 15.08838083 98834,6917.886,95.438,540.653,538.85,0.0
53733.0,STARLINK-4574,PAYLOAD,2024-06-14 12:32:37,15.08841503,0.0001162,53.2175,216.7523,95.5521,264.5603,0.00013955,1.934e-05,0.0,0 STARLINK-4574,1 53733U 22107AK  24166.52265236  .00001934  00000-0  13955-3 0  9996,2 53733  53.2175 216.7523 0001162  95.5521 264.5603 15.08841503 98995,6917.876,95.437,540.545,538.937,0.0
53733.0,STARLINK-4574,PAYLOAD,2024-06-15 13:58:46,15.0884987,0.0001041,53.2165,211.9925,84.4596,275.6514,0.00011628,1.564e-05,0.0,0 STARLINK-4574,1 53733U 22107AK  24167.58248690  .00001564  00000-0  11628-3 0  9992,2 53733  53.2165 211.9925 0001041  84.4596 275.6514 15.08849870 99150,6917.85,95.437,540.435,538.995,0.0
53733.0,STARLINK-4574,PAYLOAD,2024-06-15 21:55:43,15.08839573,0.0001086,53.2165,210.5054,86.4995,273.6121,4.5277e-05,4.33e-06,0.0,0 STARLINK-4574,1 53733U 22107AK  24167.91369419  .00000433  00000-0  45277-4 0  9994,2 53733  53.2165 210.5054 0001086  86.4995 273.6121 15.08839573 99209,6917.882,95.438,540.498,538.995,0.0
53733.0,STARLINK-4574,PAYLOAD,2024-06-16 13:49:33,15.08847797,0.0001133,53.2163,207.5316,86.0845,274.0277,7.2549e-05,8.67e-06,0.0,0 STARLINK-4574,1 53733U 22107AK  24168.57608708  .00000867  00000-0  72549-4 0  9997,2 53733  53.2163 207.5316 0001133  86.0845 274.0277 15.08847797 99302,6917.857,95.437,540.505,538.938,0.0
53733.0,STARLINK-4574,PAYLOAD,2024-06-16 21:46:30,15.08840137,0.000113,53.2163,206.0449,84.9327,275.1794,2.7366e-05,1.48e-06,0.0,0 STARLINK-4574,1 53733U 22107AK  24168.90729255  .00000148  00000-0  27366-4 0  9994,2 53733  53.2163 206.0449 0001130  84.9327 275.1794 15.08840137 99354,6917.88,95.438,540.527,538.963,0.0
53733.0,STARLINK-4574,PAYLOAD,2024-06-17 21:37:17,15.08838613,0.0001154,53.2163,201.5846,86.0927,274.0197,-1.7132e-05,-5.6e-06,0.0,0 STARLINK-4574,1 53733U 22107AK  24169.90089421 -.00000560  00000-0 -17132-4 0  9999,2 53733  53.2163 201.5846 0001154  86.0927 274.0197 15.08838613 99508,6917.885,95.438,540.548,538.951,0.0
53733.0,STARLINK-4574,PAYLOAD,2024-06-18 08:44:59,15.08839409,0.0001156,53.2162,199.5029,87.6566,272.4559,4.6672e-05,4.55e-06,0.0,0 STARLINK-4574,1 53733U 22107AK  24170.36457230  .00000455  00000-0  46672-4 0  9990,2 53733  53.2162 199.5029 0001156  87.6566 272.4559 15.08839409 99579,6917.882,95.438,540.547,538.947,0.0
53733.0,STARLINK-4574,PAYLOAD,2024-06-19 05:25:00,15.08834768,0.0001142,53.2162,195.6374,88.6682,271.4441,4.3446e-05,4.04e-06,0.0,0 STARLINK-4574,1 53733U 22107AK  24171.22569605  .00000404  00000-0  43446-4 0  9996,2 53733  53.2162 195.6374 0001142  88.6682 271.4441 15.08834768 99071,6917.896,95.438,540.551,538.971,0.0
53733.0,STARLINK-4574,PAYLOAD,2024-06-19 13:21:55,15.08838326,0.0001146,53.2163,194.1504,87.9018,272.2105,4.7139e-05,4.62e-06,0.0,0 STARLINK-4574,1 53733U 22107AK  24171.55689422  .00000462  00000-0  47139-4 0  9999,2 53733  53.2163 194.1504 0001146  87.9018 272.2105 15.08838326 99755,6917.886,95.438,540.543,538.958,0.0
53733.0,STARLINK-4574,PAYLOAD,2024-06-19 18:08:05,15.08837375,0.0001143,53.2163,193.2583,87.53,272.5823,2.2797e-05,7.5e-07,0.0,0 STARLINK-4574,1 53733U 22107AK  24171.75561573  .00000075  00000-0  22797-4 0  9990,2 53733  53.2163 193.2583 0001143  87.5300 272.5823 15.08837375 99785,6917.888,95.438,540.544,538.963,0.0
53733.0,STARLINK-4574,PAYLOAD,2024-06-20 11:37:19,15.08841216,0.0001163,53.2164,189.9875,88.9646,271.148,4.8591e-05,4.86e-06,0.0,0 STARLINK-4574,1 53733U 22107AK  24172.48425315  .00000486  00000-0  48591-4 0  9990,2 53733  53.2164 189.9875 0001163  88.9646 271.1480 15.08841216 99897,6917.877,95.437,540.546,538.937,0.0
53733.0,STARLINK-4574,PAYLOAD,2024-06-21 00:20:25,15.08835425,0.0001216,53.2169,187.6085,86.0236,274.0895,5.6031e-06,-1.99e-06,0.0,0 STARLINK-4574,1 53733U 22107AK  24173.01417902 -.00000199  00000-0  56031-5 0  9994,2 53733  53.2169 187.6085 0001216  86.0236 274.0895 15.08835425 99340,6917.894,95.438,540.601,538.918,0.0
53733.0,STARLINK-4574,PAYLOAD,2024-06-21 11:28:07,15.08835328,0.0001226,53.2169,185.527,85.1226,274.9906,2.9532e-06,-2.41e-06,0.0,0 STARLINK-4574,1 53733U 22107AK  24173.47786068 -.00000241  00000-0  29532-5 0  9990,2 53733  53.2169 185.5270 0001226  85.1226 274.9906 15.08835328100047,6917.895,95.438,540.608,538.912,0.0
53733.0,STARLINK-4574,PAYLOAD,2024-06-22 04:57:22,15.08833366,0.0001268,53.2171,182.2562,84.9415,275.1722,-2.2573e-05,-6.47e-06,0.0,0 STARLINK-4574,1 53733U 22107AK  24174.20650535 -.00000647  00000-0 -22573-4 0  9999,2 53733  53.2171 182.2562 0001268  84.9415 275.1722 15.08833366 99520,6917.901,95.438,540.643,538.888,0.0
53733.0,STARLINK-4574,PAYLOAD,2024-06-22 09:43:31,15.08833969,0.0001258,53.2168,181.364,83.1062,277.0073,-2.3395e-05,-6.6e-06,0.0,0 STARLINK-4574,1 53733U 22107AK  24174.40522572 -.00000660  00000-0 -23395-4 0  9998,2 53733  53.2168 181.3640 0001258  83.1062 277.0073 15.08833969100185,6917.899,95.438,540.634,538.894,0.0
53733.0,STARLINK-4574,PAYLOAD,2024-06-23 07:58:55,15.0883613,0.0001297,53.2169,177.2007,80.5012,279.6127,5.4925e-05,5.86e-06,0.0,0 STARLINK-4574,1 53733U 22107AK  24175.33258496  .00000586  00000-0  54925-4 0  9990,2 53733  53.2169 177.2007 0001297  80.5012 279.6127 15.08836130 99690,6917.892,95.438,540.654,538.86,0.0
53733.0,STARLINK-4574,PAYLOAD,2024-06-24 09:25:05,15.08843015,0.000124,53.2166,172.4423,83.3584,276.755,0.00010038,1.31e-05,0.0,0 STARLINK-4574,1 53733U 22107AK  24176.39241935  .00001310  00000-0  10038-3 0  9999,2 53733  53.2166 172.4423 0001240  83.3584 276.7550 15.08843015 99855,6917.871,95.437,540.594,538.878,0.0
53733.0,STARLINK-4574,PAYLOAD,2024-06-25 06:05:05,15.08845476,0.0001272,53.2166,168.5756,81.2355,278.8782,4.4729e-05,4.24e-06,0.0,0 STARLINK-4574,1 53733U 22107AK  24177.25353816  .00000424  00000-0  44729-4 0  9997,2 53733  53.2166 168.5756 0001272  81.2355 278.8782 15.08845476100618,6917.864,95.437,540.609,538.849,0.0
53733.0,STARLINK-4574,PAYLOAD,2024-06-26 04:20:29,15.08842393,0.0001308,53.217,164.4126,90.3417,269.7725,-9.3008e-06,-4.36e-06,0.0,0 STARLINK-4574,1 53733U 22107AK  24178.18089945 -.00000436  00000-0 -93008-5 0  9999,2 53733  53.2170 164.4126 0001308  90.3417 269.7725 15.08842393100126,6917.873,95.437,540.643,538.833,0.0
53733.0,STARLINK-4574,PAYLOAD,2024-06-26 05:55:52,15.08842909,0.0001307,53.2166,164.1153,88.3124,271.8018,-3.805e-06,-3.48e-06,0.0,0 STARLINK-4574,1 53733U 22107AK  24178.24713884 -.00000348  00000-0 -38050-5 0  9990,2 53733  53.2166 164.1153 0001307  88.3124 271.8018 15.08842909100761,6917.871,95.437,540.641,538.832,0.0
53733.0,STARLINK-4574,PAYLOAD,2024-06-27 05:46:39,15.08840568,0.0001383,53.2169,159.6599,97.8862,262.2287,6.742e-06,-1.81e-06,0.0,0 STARLINK-4574,1 53733U 22107AK  24179.24073980 -.00000181  00000-0  67420-5 0  9994,2 53733  53.2169 159.6599 0001383  97.8862 262.2287 15.08840568100283,6917.879,95.438,540.7,538.787,0.0
53733.0,STARLINK-4574,PAYLOAD,2024-06-27 15:18:58,15.08841456,0.0001287,53.2166,157.873,94.2579,265.856,-2.1885e-05,-6.36e-06,0.0,0 STARLINK-4574,1 53733U 22107AK  24179.63817972 -.00000636  00000-0 -21885-4 0  9994,2 53733  53.2166 157.8730 0001287  94.2579 265.8560 15.08841456100972,6917.876,95.437,540.631,538.851,0.0
53733.0,STARLINK-4574,PAYLOAD,2024-06-28 05:37:27,15.08835022,0.0001247,53.2169,155.1989,95.4055,264.7079,-3.6932e-05,-8.75e-06,0.0,0 STARLINK-4574,1 53733U 22107AK  24180.23434701 -.00000875  00000-0 -36932-4 0  9991,2 53733  53.2169 155.1989 0001247  95.4055 264.7079 15.08835022100436,6917.896,95.438,540.623,538.898,0.0
53733.0,STARLINK-4574,PAYLOAD,2024-06-28 15:09:45,15.08840067,0.0001451,53.2168,153.4126,88.3543,271.7615,4.6801e-05,4.57e-06,0.0,0 STARLINK-4574,1 53733U 22107AK  24180.63178210  .00000457  00000-0  46801-4 0  9995,2 53733  53.2168 153.4126 0001451  88.3543 271.7615 15.08840067100494,6917.88,95.438,540.749,538.741,0.0
53733.0,STARLINK-4574,PAYLOAD,2024-06-29 07:03:37,15.08843137,0.0001361,53.2164,150.4368,87.7008,272.414,5.0236e-05,5.12e-06,0.0,0 STARLINK-4574,1 53733U 22107AK  24181.29418067  .00000512  00000-0  50236-4 0  9994,2 53733  53.2164 150.4368 0001361  87.7008 272.4140 15.08843137101228,6917.871,95.437,540.677,538.794,0.0
